IRIDIUM 119             
1 42959U 17061E   25163.56285623  .00000022  00000+0  81917-6 0  9993
2 42959  86.3993 179.7166 0002521  94.6529 265.4955 14.34219026401835
IRIDIUM 107             
1 42960U 17061F   25163.65165233  .00000156  00000+0  48739-4 0  9990
2 42960  86.3994 179.6988 0002830  88.0645 272.0875 14.34217733401858
IRIDIUM 132             
1 42961U 17061G   25164.00683732  .00000130  00000+0  39394-4 0  9999
2 42961  86.3994 179.5327 0002475  89.7877 270.3602 14.34217649401906
IRIDIUM 136             
1 42962U 17061H   25163.55017138  .00000028  00000+0  28331-5 0  9996
2 42962  86.3994 179.7280 0002566  93.0199 267.1290 14.34217820401855
IRIDIUM 139             
1 42963U 17061J   25163.76581922  .00000037  00000+0  60819-5 0  9994
2 42963  86.3994 179.6938 0002585  87.8839 272.2653 14.34217725401896
IRIDIUM 125             
1 42964U 17061K   25164.52058837  .00000058  00000+0  13803-4 0  9997
2 42964  86.3997 179.4331 0002925  96.0706 264.0823 14.34218123402014
IRIDIUM 135             
1 43070U 17083A   25163.79702757 -.00000010  00000+0 -10721-4 0  9991
2 43070  86.3964 116.4542 0001984  82.2873 277.8548 14.34217436391208
IRIDIUM 138             
1 43071U 17083B   25163.82239838  .00000274  00000+0  90781-4 0  9995
2 43071  86.3951 116.1150 0002392  98.5799 261.5668 14.34218534391199
